STARLINK-35342          
1 66181U 25243E   26083.66418292  .00023447  00000+0  80091-3 0  9995
2 66181  53.1576 175.8941 0001449  79.4951 280.6213 15.30214361 22944
STARLINK-35333          
1 66182U 25243F   26083.66629138  .00020198  00000+0  69188-3 0  9993
2 66182  53.1577 175.9089 0001236  76.6321 283.4817 15.30215326 22947
STARLINK-35310          
1 66183U 25243G   26083.66945918  .00014775  00000+0  50980-3 0  9995
2 66183  53.1570 175.9282 0001125  77.0419 283.0707 15.30211928 22944
STARLINK-35317          
1 66184U 25243H   26083.52616854  .00022021  00000+0  75339-3 0  9993
2 66184  53.1578 176.4574 0000677  73.8855 286.2220 15.30201423 22924
STARLINK-35377          
1 66185U 25243J   26083.66734742  .00024204  00000+0  82617-3 0  9998
2 66185  53.1572 175.9178 0001222  75.3873 284.7264 15.30219263 22941
STARLINK-35365          
1 66186U 25243K   26083.53249764  .00021061  00000+0  72092-3 0  9994
2 66186  53.1578 176.4981 0001361  83.8661 276.2495 15.30212222 22927
STARLINK-35350          
1 66187U 25243L   26083.40927737  .00034283  00000+0  11641-2 0  9996
2 66187  53.1567 177.1520 0000806  91.0176 269.0917 15.30205435 22903
STARLINK-35041          
1 66188U 25243M   26083.52300085  .00024097  00000+0  82242-3 0  9999
2 66188  53.1589 176.4371 0002176 105.9219 254.2022 15.30224899 22929
STARLINK-34694          
1 66189U 25243N   26083.64730060  .00029431  00000+0  10014-2 0  9997
2 66189  53.1582 175.7905 0001423  88.4771 271.6393 15.30215570 22942
STARLINK-34863          
1 66190U 25243P   26083.65996584  .00016661  00000+0  57331-3 0  9990
2 66190  53.1587 175.8718 0001407  75.4490 284.6666 15.30204104 22946
STARLINK-35061          
1 66191U 25243Q   26083.67262325  .00025730  00000+0  87716-3 0  9999
2 66191  53.1582 175.9492 0001084  99.5676 260.5447 15.30224507 22945
STARLINK-34937          
1 66192U 25243R   26083.67578835  .00028073  00000+0  95554-3 0  9998
2 66192  53.1570 175.9702 0001474  85.7860 274.3309 15.30228719 22941
STARLINK-35197          
1 66193U 25243S   26083.96121148  .00055700  00000+0  18776-2 0  9999
2 66193  53.1610 174.1955 0002861  73.6400 286.4915 15.30217258 22993
STARLINK-35374          
1 66194U 25243T   26083.96437050  .00032573  00000+0  11067-2 0  9991
2 66194  53.1581 174.2152 0000884  94.4171 265.6931 15.30210090 22994
STARLINK-34813          
1 66195U 25243U   26083.96754120  .00031756  00000+0  10794-2 0  9990
2 66195  53.1585 174.2328 0002121  83.7156 276.4086 15.30209612 22993
STARLINK-35409          
1 66196U 25243V   26083.97070763  .00017968  00000+0  61725-3 0  9996
2 66196  53.1644 174.2553 0001862  67.9006 292.2192 15.30202526 22990
