[{"OBJECT_NAME":"STARLINK-35342","OBJECT_ID":"2025-243E","EPOCH":"2026-03-24T15:56:25.404288","MEAN_MOTION":15.30214361,"ECCENTRICITY":0.00014492,"INCLINATION":53.1576,"RA_OF_ASC_NODE":175.8941,"ARG_OF_PERICENTER":79.4951,"MEAN_ANOMALY":280.6213,"EPHEMERIS_TYPE":0,"CLASSIFICATION_TYPE":"U","NORAD_CAT_ID":66181,"ELEMENT_SET_NO":999,"REV_AT_EPOCH":2294,"BSTAR":0.00080091156,"MEAN_MOTION_DOT":0.00023447,"MEAN_MOTION_DDOT":0},{"OBJECT_NAME":"STARLINK-35333","OBJECT_ID":"2025-243F","EPOCH":"2026-03-24T15:59:27.575232","MEAN_MOTION":15.30215326,"ECCENTRICITY":0.00012362,"INCLINATION":53.1577,"RA_OF_ASC_NODE":175.9089,"ARG_OF_PERICENTER":76.6321,"MEAN_ANOMALY":283.4817,"EPHEMERIS_TYPE":0,"CLASSIFICATION_TYPE":"U","NORAD_CAT_ID":66182,"ELEMENT_SET_NO":999,"REV_AT_EPOCH":2294,"BSTAR":0.00069188398,"MEAN_MOTION_DOT":0.00020198,"MEAN_MOTION_DDOT":0},{"OBJECT_NAME":"STARLINK-35310","OBJECT_ID":"2025-243G","EPOCH":"2026-03-24T16:04:01.273152","MEAN_MOTION":15.30211928,"ECCENTRICITY":0.00011253,"INCLINATION":53.157,"RA_OF_ASC_NODE":175.9282,"ARG_OF_PERICENTER":77.0419,"MEAN_ANOMALY":283.0707,"EPHEMERIS_TYPE":0,"CLASSIFICATION_TYPE":"U","NORAD_CAT_ID":66183,"ELEMENT_SET_NO":999,"REV_AT_EPOCH":2294,"BSTAR":0.00050979978,"MEAN_MOTION_DOT":0.00014775,"MEAN_MOTION_DDOT":0},{"OBJECT_NAME":"STARLINK-35317","OBJECT_ID":"2025-243H","EPOCH":"2026-03-24T12:37:40.961856","MEAN_MOTION":15.30201423,"ECCENTRICITY":6.773e-5,"INCLINATION":53.1578,"RA_OF_ASC_NODE":176.4574,"ARG_OF_PERICENTER":73.8855,"MEAN_ANOMALY":286.222,"EPHEMERIS_TYPE":0,"CLASSIFICATION_TYPE":"U","NORAD_CAT_ID":66184,"ELEMENT_SET_NO":999,"REV_AT_EPOCH":2292,"BSTAR":0.00075339142,"MEAN_MOTION_DOT":0.00022021,"MEAN_MOTION_DDOT":0},{"OBJECT_NAME":"STARLINK-35377","OBJECT_ID":"2025-243J","EPOCH":"2026-03-24T16:00:58.817088","MEAN_MOTION":15.30219263,"ECCENTRICITY":0.00012225,"INCLINATION":53.1572,"RA_OF_ASC_NODE":175.9178,"ARG_OF_PERICENTER":75.3873,"MEAN_ANOMALY":284.7264,"EPHEMERIS_TYPE":0,"CLASSIFICATION_TYPE":"U","NORAD_CAT_ID":66185,"ELEMENT_SET_NO":999,"REV_AT_EPOCH":2294,"BSTAR":0.00082616899,"MEAN_MOTION_DOT":0.00024204,"MEAN_MOTION_DDOT":0},{"OBJECT_NAME":"STARLINK-35365","OBJECT_ID":"2025-243K","EPOCH":"2026-03-24T12:46:47.796096","MEAN_MOTION":15.30212222,"ECCENTRICITY":0.00013615,"INCLINATION":53.1578,"RA_OF_ASC_NODE":176.4981,"ARG_OF_PERICENTER":83.8661,"MEAN_ANOMALY":276.2495,"EPHEMERIS_TYPE":0,"CLASSIFICATION_TYPE":"U","NORAD_CAT_ID":66186,"ELEMENT_SET_NO":999,"REV_AT_EPOCH":2292,"BSTAR":0.00072092136,"MEAN_MOTION_DOT":0.00021061,"MEAN_MOTION_DDOT":0},{"OBJECT_NAME":"STARLINK-35350","OBJECT_ID":"2025-243L","EPOCH":"2026-03-24T09:49:21.564768","MEAN_MOTION":15.30205435,"ECCENTRICITY":8.066e-5,"INCLINATION":53.1567,"RA_OF_ASC_NODE":177.152,"ARG_OF_PERICENTER":91.0176,"MEAN_ANOMALY":269.0917,"EPHEMERIS_TYPE":0,"CLASSIFICATION_TYPE":"U","NORAD_CAT_ID":66187,"ELEMENT_SET_NO":999,"REV_AT_EPOCH":2290,"BSTAR":0.0011641124,"MEAN_MOTION_DOT":0.00034283,"MEAN_MOTION_DDOT":0},{"OBJECT_NAME":"STARLINK-35041","OBJECT_ID":"2025-243M","EPOCH":"2026-03-24T12:33:07.273440","MEAN_MOTION":15.30224899,"ECCENTRICITY":0.00021764,"INCLINATION":53.1589,"RA_OF_ASC_NODE":176.4371,"ARG_OF_PERICENTER":105.9219,"MEAN_ANOMALY":254.2022,"EPHEMERIS_TYPE":0,"CLASSIFICATION_TYPE":"U","NORAD_CAT_ID":66188,"ELEMENT_SET_NO":999,"REV_AT_EPOCH":2292,"BSTAR":0.00082242097,"MEAN_MOTION_DOT":0.00024097,"MEAN_MOTION_DDOT":0},{"OBJECT_NAME":"STARLINK-34694","OBJECT_ID":"2025-243N","EPOCH":"2026-03-24T15:32:06.771840","MEAN_MOTION":15.3021557,"ECCENTRICITY":0.00014232,"INCLINATION":53.1582,"RA_OF_ASC_NODE":175.7905,"ARG_OF_PERICENTER":88.4771,"MEAN_ANOMALY":271.6393,"EPHEMERIS_TYPE":0,"CLASSIFICATION_TYPE":"U","NORAD_CAT_ID":66189,"ELEMENT_SET_NO":999,"REV_AT_EPOCH":2294,"BSTAR":0.0010013948,"MEAN_MOTION_DOT":0.00029431,"MEAN_MOTION_DDOT":0},{"OBJECT_NAME":"STARLINK-34863","OBJECT_ID":"2025-243P","EPOCH":"2026-03-24T15:50:21.048576","MEAN_MOTION":15.30204104,"ECCENTRICITY":0.00014072,"INCLINATION":53.1587,"RA_OF_ASC_NODE":175.8718,"ARG_OF_PERICENTER":75.449,"MEAN_ANOMALY":284.6666,"EPHEMERIS_TYPE":0,"CLASSIFICATION_TYPE":"U","NORAD_CAT_ID":66190,"ELEMENT_SET_NO":999,"REV_AT_EPOCH":2294,"BSTAR":0.00057331056,"MEAN_MOTION_DOT":0.00016661,"MEAN_MOTION_DDOT":0},{"OBJECT_NAME":"STARLINK-35061","OBJECT_ID":"2025-243Q","EPOCH":"2026-03-24T16:08:34.648800","MEAN_MOTION":15.30224507,"ECCENTRICITY":0.00010842,"INCLINATION":53.1582,"RA_OF_ASC_NODE":175.9492,"ARG_OF_PERICENTER":99.5676,"MEAN_ANOMALY":260.5447,"EPHEMERIS_TYPE":0,"CLASSIFICATION_TYPE":"U","NORAD_CAT_ID":66191,"ELEMENT_SET_NO":999,"REV_AT_EPOCH":2294,"BSTAR":0.00087716493,"MEAN_MOTION_DOT":0.0002573,"MEAN_MOTION_DDOT":0},{"OBJECT_NAME":"STARLINK-34937","OBJECT_ID":"2025-243R","EPOCH":"2026-03-24T16:13:08.113440","MEAN_MOTION":15.30228719,"ECCENTRICITY":0.0001474,"INCLINATION":53.157,"RA_OF_ASC_NODE":175.9702,"ARG_OF_PERICENTER":85.786,"MEAN_ANOMALY":274.3309,"EPHEMERIS_TYPE":0,"CLASSIFICATION_TYPE":"U","NORAD_CAT_ID":66192,"ELEMENT_SET_NO":999,"REV_AT_EPOCH":2294,"BSTAR":0.00095554177,"MEAN_MOTION_DOT":0.00028073,"MEAN_MOTION_DDOT":0},{"OBJECT_NAME":"STARLINK-35197","OBJECT_ID":"2025-243S","EPOCH":"2026-03-24T23:04:08.671872","MEAN_MOTION":15.30217258,"ECCENTRICITY":0.00028615,"INCLINATION":53.161,"RA_OF_ASC_NODE":174.1955,"ARG_OF_PERICENTER":73.64,"MEAN_ANOMALY":286.4915,"EPHEMERIS_TYPE":0,"CLASSIFICATION_TYPE":"U","NORAD_CAT_ID":66193,"ELEMENT_SET_NO":999,"REV_AT_EPOCH":2299,"BSTAR":0.0018775751,"MEAN_MOTION_DOT":0.000557,"MEAN_MOTION_DDOT":0},{"OBJECT_NAME":"STARLINK-35374","OBJECT_ID":"2025-243T","EPOCH":"2026-03-24T23:08:41.611200","MEAN_MOTION":15.3021009,"ECCENTRICITY":8.844e-5,"INCLINATION":53.1581,"RA_OF_ASC_NODE":174.2152,"ARG_OF_PERICENTER":94.4171,"MEAN_ANOMALY":265.6931,"EPHEMERIS_TYPE":0,"CLASSIFICATION_TYPE":"U","NORAD_CAT_ID":66194,"ELEMENT_SET_NO":999,"REV_AT_EPOCH":2299,"BSTAR":0.0011067344,"MEAN_MOTION_DOT":0.00032573,"MEAN_MOTION_DDOT":0},{"OBJECT_NAME":"STARLINK-34813","OBJECT_ID":"2025-243U","EPOCH":"2026-03-24T23:13:15.559680","MEAN_MOTION":15.30209612,"ECCENTRICITY":0.0002121,"INCLINATION":53.1585,"RA_OF_ASC_NODE":174.2328,"ARG_OF_PERICENTER":83.7156,"MEAN_ANOMALY":276.4086,"EPHEMERIS_TYPE":0,"CLASSIFICATION_TYPE":"U","NORAD_CAT_ID":66195,"ELEMENT_SET_NO":999,"REV_AT_EPOCH":2299,"BSTAR":0.0010794026,"MEAN_MOTION_DOT":0.00031756,"MEAN_MOTION_DDOT":0},{"OBJECT_NAME":"STARLINK-35409","OBJECT_ID":"2025-243V","EPOCH":"2026-03-24T23:17:49.139232","MEAN_MOTION":15.30202526,"ECCENTRICITY":0.00018625,"INCLINATION":53.1644,"RA_OF_ASC_NODE":174.2553,"ARG_OF_PERICENTER":67.9006,"MEAN_ANOMALY":292.2192,"EPHEMERIS_TYPE":0,"CLASSIFICATION_TYPE":"U","NORAD_CAT_ID":66196,"ELEMENT_SET_NO":999,"REV_AT_EPOCH":2299,"BSTAR":0.00061725462,"MEAN_MOTION_DOT":0.00017968,"MEAN_MOTION_DDOT":0}]
